{
  "type": "FeatureCollection",
  "features": [
    {
      "type": "Feature",
      "properties": {
        "norad_id": 25590,
        "name": "COSMOS 2361",
        "group": "musson",
        "lat": 73.20038331167787,
        "lon": 146.82047841539534,
        "alt_km": 1003.0652581481254,
        "timestamp": "2025-12-03T06:58:43.507349+00:00",
        "meta_object_name": "COSMOS 2361",
        "meta_object_id": "1998-076A",
        "meta_epoch": "2025-12-02T19:04:05.950848",
        "meta_mean_motion": 13.7321583,
        "meta_eccentricity": 0.0030169,
        "meta_inclination": 82.9342,
        "meta_ra_of_asc_node": 351.4427,
        "meta_arg_of_pericenter": 294.4791,
        "meta_mean_anomaly": 238.7655,
        "meta_ephemeris_type": 0,
        "meta_classification_type": "U",
        "meta_norad_cat_id": 25590,
        "meta_element_set_no": 999,
        "meta_rev_at_epoch": 34974,
        "meta_bstar": 8.3725e-05,
        "meta_mean_motion_dot": 9.3e-07,
        "meta_mean_motion_ddot": 0,
        "tle_line1": "1 25590U 98076A   25336.79451332  .00000093  00000+0  83725-4 0  9994",
        "tle_line2": "2 25590  82.9342 351.4427 0030169 294.4791 238.7655 13.73215830349748"
      },
      "geometry": {
        "type": "Point",
        "coordinates": [
          146.82047841539534,
          73.20038331167787
        ]
      }
    },
    {
      "type": "Feature",
      "properties": {
        "norad_id": 26818,
        "name": "COSMOS 2378",
        "group": "musson",
        "lat": 33.56628323231108,
        "lon": -177.99320746240943,
        "alt_km": 980.8227506072262,
        "timestamp": "2025-12-03T06:58:43.507374+00:00",
        "meta_object_name": "COSMOS 2378",
        "meta_object_id": "2001-023A",
        "meta_epoch": "2025-12-02T20:37:34.661280",
        "meta_mean_motion": 13.74140569,
        "meta_eccentricity": 0.0031897,
        "meta_inclination": 82.928,
        "meta_ra_of_asc_node": 7.0513,
        "meta_arg_of_pericenter": 233.114,
        "meta_mean_anomaly": 300.6428,
        "meta_ephemeris_type": 0,
        "meta_classification_type": "U",
        "meta_norad_cat_id": 26818,
        "meta_element_set_no": 999,
        "meta_rev_at_epoch": 22787,
        "meta_bstar": 6.0881e-05,
        "meta_mean_motion_dot": 7.2e-07,
        "meta_mean_motion_ddot": 0,
        "tle_line1": "1 26818U 01023A   25336.85942895  .00000072  00000+0  60881-4 0  9995",
        "tle_line2": "2 26818  82.9280   7.0513 0031897 233.1140 300.6428 13.74140569227873"
      },
      "geometry": {
        "type": "Point",
        "coordinates": [
          -177.99320746240943,
          33.56628323231108
        ]
      }
    },
    {
      "type": "Feature",
      "properties": {
        "norad_id": 27436,
        "name": "COSMOS 2389",
        "group": "musson",
        "lat": -41.18754169232853,
        "lon": -52.236340666918565,
        "alt_km": 1009.137427513082,
        "timestamp": "2025-12-03T06:58:43.507389+00:00",
        "meta_object_name": "COSMOS 2389",
        "meta_object_id": "2002-026A",
        "meta_epoch": "2025-12-02T21:01:02.440416",
        "meta_mean_motion": 13.75153046,
        "meta_eccentricity": 0.0047787,
        "meta_inclination": 82.9494,
        "meta_ra_of_asc_node": 314.2878,
        "meta_arg_of_pericenter": 87.5253,
        "meta_mean_anomaly": 337.8185,
        "meta_ephemeris_type": 0,
        "meta_classification_type": "U",
        "meta_norad_cat_id": 27436,
        "meta_element_set_no": 999,
        "meta_rev_at_epoch": 18013,
        "meta_bstar": 6.8886e-05,
        "meta_mean_motion_dot": 8.2e-07,
        "meta_mean_motion_ddot": 0,
        "tle_line1": "1 27436U 02026A   25336.87572269  .00000082  00000+0  68886-4 0  9996",
        "tle_line2": "2 27436  82.9494 314.2878 0047787  87.5253 337.8185 13.75153046180139"
      },
      "geometry": {
        "type": "Point",
        "coordinates": [
          -52.236340666918565,
          -41.18754169232853
        ]
      }
    },
    {
      "type": "Feature",
      "properties": {
        "norad_id": 27818,
        "name": "COSMOS 2398",
        "group": "musson",
        "lat": 5.256906431243223,
        "lon": -79.68557179573781,
        "alt_km": 1008.9597146502601,
        "timestamp": "2025-12-03T06:58:43.507401+00:00",
        "meta_object_name": "COSMOS 2398",
        "meta_object_id": "2003-023A",
        "meta_epoch": "2025-12-02T20:42:48.434976",
        "meta_mean_motion": 13.72384231,
        "meta_eccentricity": 0.0032201,
        "meta_inclination": 82.9475,
        "meta_ra_of_asc_node": 279.977,
        "meta_arg_of_pericenter": 138.3134,
        "meta_mean_anomaly": 275.3716,
        "meta_ephemeris_type": 0,
        "meta_classification_type": "U",
        "meta_norad_cat_id": 27818,
        "meta_element_set_no": 999,
        "meta_rev_at_epoch": 12681,
        "meta_bstar": 4.227e-05,
        "meta_mean_motion_dot": 5.4e-07,
        "meta_mean_motion_ddot": 0,
        "tle_line1": "1 27818U 03023A   25336.86306059  .00000054  00000+0  42270-4 0  9997",
        "tle_line2": "2 27818  82.9475 279.9770 0032201 138.3134 275.3716 13.72384231126818"
      },
      "geometry": {
        "type": "Point",
        "coordinates": [
          -79.68557179573781,
          5.256906431243223
        ]
      }
    },
    {
      "type": "Feature",
      "properties": {
        "norad_id": 28380,
        "name": "COSMOS 2407",
        "group": "musson",
        "lat": 66.80914274006606,
        "lon": -123.35120487877941,
        "alt_km": 941.3819880044593,
        "timestamp": "2025-12-03T06:58:43.507413+00:00",
        "meta_object_name": "COSMOS 2407",
        "meta_object_id": "2004-028A",
        "meta_epoch": "2025-12-02T18:46:01.833024",
        "meta_mean_motion": 13.76311972,
        "meta_eccentricity": 0.0040534,
        "meta_inclination": 82.9614,
        "meta_ra_of_asc_node": 220.2647,
        "meta_arg_of_pericenter": 81.8447,
        "meta_mean_anomaly": 346.5259,
        "meta_ephemeris_type": 0,
        "meta_classification_type": "U",
        "meta_norad_cat_id": 28380,
        "meta_element_set_no": 999,
        "meta_rev_at_epoch": 7286,
        "meta_bstar": 9.0821e-05,
        "meta_mean_motion_dot": 1.05e-06,
        "meta_mean_motion_ddot": 0,
        "tle_line1": "1 28380U 04028A   25336.78196566  .00000105  00000+0  90821-4 0  9991",
        "tle_line2": "2 28380  82.9614 220.2647 0040534  81.8447 346.5259 13.76311972 72861"
      },
      "geometry": {
        "type": "Point",
        "coordinates": [
          -123.35120487877941,
          66.80914274006606
        ]
      }
    },
    {
      "type": "Feature",
      "properties": {
        "norad_id": 28521,
        "name": "COSMOS 2414",
        "group": "musson",
        "lat": -61.17774157729203,
        "lon": 178.80800335539539,
        "alt_km": 962.7609799356833,
        "timestamp": "2025-12-03T06:58:43.507425+00:00",
        "meta_object_name": "COSMOS 2414",
        "meta_object_id": "2005-002A",
        "meta_epoch": "2025-12-02T20:53:51.937728",
        "meta_mean_motion": 13.87900867,
        "meta_eccentricity": 0.0040287,
        "meta_inclination": 82.9499,
        "meta_ra_of_asc_node": 192.1221,
        "meta_arg_of_pericenter": 167.4249,
        "meta_mean_anomaly": 192.793,
        "meta_ephemeris_type": 0,
        "meta_classification_type": "U",
        "meta_norad_cat_id": 28521,
        "meta_element_set_no": 999,
        "meta_rev_at_epoch": 5658,
        "meta_bstar": 8.0555e-05,
        "meta_mean_motion_dot": 1.12e-06,
        "meta_mean_motion_ddot": 0,
        "tle_line1": "1 28521U 05002A   25336.87074002  .00000112  00000+0  80555-4 0  9992",
        "tle_line2": "2 28521  82.9499 192.1221 0040287 167.4249 192.7930 13.87900867 56587"
      },
      "geometry": {
        "type": "Point",
        "coordinates": [
          178.80800335539539,
          -61.17774157729203
        ]
      }
    },
    {
      "type": "Feature",
      "properties": {
        "norad_id": 32052,
        "name": "COSMOS 2429",
        "group": "musson",
        "lat": 34.16187572008859,
        "lon": 165.47914867368846,
        "alt_km": 974.6980621039493,
        "timestamp": "2025-12-03T06:58:43.507437+00:00",
        "meta_object_name": "COSMOS 2429",
        "meta_object_id": "2007-038A",
        "meta_epoch": "2025-12-02T18:03:15.022080",
        "meta_mean_motion": 13.75147947,
        "meta_eccentricity": 0.003965,
        "meta_inclination": 82.9805,
        "meta_ra_of_asc_node": 350.6721,
        "meta_arg_of_pericenter": 65.0194,
        "meta_mean_anomaly": 295.5073,
        "meta_ephemeris_type": 0,
        "meta_classification_type": "U",
        "meta_norad_cat_id": 32052,
        "meta_element_set_no": 999,
        "meta_rev_at_epoch": 91465,
        "meta_bstar": 7.647e-05,
        "meta_mean_motion_dot": 8.9e-07,
        "meta_mean_motion_ddot": 0,
        "tle_line1": "1 32052U 07038A   25336.75225720  .00000089  00000+0  76470-4 0  9993",
        "tle_line2": "2 32052  82.9805 350.6721 0039650  65.0194 295.5073 13.75147947914652"
      },
      "geometry": {
        "type": "Point",
        "coordinates": [
          165.47914867368846,
          34.16187572008859
        ]
      }
    },
    {
      "type": "Feature",
      "properties": {
        "norad_id": 35635,
        "name": "COSMOS 2454",
        "group": "musson",
        "lat": -78.50598262849064,
        "lon": 138.35780433931475,
        "alt_km": 951.2183274799081,
        "timestamp": "2025-12-03T06:58:43.507447+00:00",
        "meta_object_name": "COSMOS 2454",
        "meta_object_id": "2009-039A",
        "meta_epoch": "2025-12-02T19:19:53.237856",
        "meta_mean_motion": 13.89926641,
        "meta_eccentricity": 0.0020476,
        "meta_inclination": 82.9557,
        "meta_ra_of_asc_node": 176.1754,
        "meta_arg_of_pericenter": 100.2872,
        "meta_mean_anomaly": 271.8916,
        "meta_ephemeris_type": 0,
        "meta_classification_type": "U",
        "meta_norad_cat_id": 35635,
        "meta_element_set_no": 999,
        "meta_rev_at_epoch": 83012,
        "meta_bstar": 7.1193e-05,
        "meta_mean_motion_dot": 1.04e-06,
        "meta_mean_motion_ddot": 0,
        "tle_line1": "1 35635U 09039A   25336.80547729  .00000104  00000+0  71193-4 0  9993",
        "tle_line2": "2 35635  82.9557 176.1754 0020476 100.2872 271.8916 13.89926641830127"
      },
      "geometry": {
        "type": "Point",
        "coordinates": [
          138.35780433931475,
          -78.50598262849064
        ]
      }
    },
    {
      "type": "Feature",
      "properties": {
        "norad_id": 36519,
        "name": "COSMOS 2463",
        "group": "musson",
        "lat": -39.6632898427773,
        "lon": -140.46537289203874,
        "alt_km": 1002.4070671187192,
        "timestamp": "2025-12-03T06:58:43.507459+00:00",
        "meta_object_name": "COSMOS 2463",
        "meta_object_id": "2010-017A",
        "meta_epoch": "2025-12-02T16:27:27.586080",
        "meta_mean_motion": 13.71647766,
        "meta_eccentricity": 0.0035125,
        "meta_inclination": 82.9622,
        "meta_ra_of_asc_node": 34.1003,
        "meta_arg_of_pericenter": 316.8812,
        "meta_mean_anomaly": 157.4571,
        "meta_ephemeris_type": 0,
        "meta_classification_type": "U",
        "meta_norad_cat_id": 36519,
        "meta_element_set_no": 999,
        "meta_rev_at_epoch": 78099,
        "meta_bstar": 7.41e-05,
        "meta_mean_motion_dot": 8.2e-07,
        "meta_mean_motion_ddot": 0,
        "tle_line1": "1 36519U 10017A   25336.68573595  .00000082  00000+0  74100-4 0  9995",
        "tle_line2": "2 36519  82.9622  34.1003 0035125 316.8812 157.4571 13.71647766780992"
      },
      "geometry": {
        "type": "Point",
        "coordinates": [
          -140.46537289203874,
          -39.6632898427773
        ]
      }
    }
  ]
}